1 43013U 17073A   26167.78987514  .00000056  00000+0  47755-4 0  9992
2 43013  98.7771 107.2560 0000292  94.0257 266.0952 14.19511688444414
